{
  "type": "FeatureCollection",
  "features": [
    {
      "type": "Feature",
      "properties": {
        "norad_id": 33376,
        "name": "GALAXY 19 (G-19)",
        "group": "intelsat",
        "lat": 0.014414833325507463,
        "lon": 150.72126650594765,
        "alt_km": 35791.865340435244,
        "timestamp": "2025-12-05T11:32:55.694063+00:00",
        "meta_object_name": "GALAXY 19 (G-19)",
        "meta_object_id": "2008-045A",
        "meta_epoch": "2025-12-04T13:15:52.264800",
        "meta_mean_motion": 1.00270748,
        "meta_eccentricity": 0.0003382,
        "meta_inclination": 0.015,
        "meta_ra_of_asc_node": 20.2783,
        "meta_arg_of_pericenter": 242.9644,
        "meta_mean_anomaly": 272.3552,
        "meta_ephemeris_type": 0,
        "meta_classification_type": "U",
        "meta_norad_cat_id": 33376,
        "meta_element_set_no": 999,
        "meta_rev_at_epoch": 6295,
        "meta_bstar": 0,
        "meta_mean_motion_dot": -1.25e-06,
        "meta_mean_motion_ddot": 0,
        "tle_line1": "1 33376U 08045A   25338.55268825 -.00000125  00000+0  00000+0 0  9998",
        "tle_line2": "2 33376   0.0150  20.2783 0003382 242.9644 272.3552  1.00270748 62956"
      },
      "geometry": {
        "type": "Point",
        "coordinates": [
          150.72126650594765,
          0.014414833325507463
        ]
      }
    },
    {
      "type": "Feature",
      "properties": {
        "norad_id": 35493,
        "name": "FM-5",
        "group": "intelsat",
        "lat": -0.02208894951791762,
        "lon": 161.57631729519633,
        "alt_km": 35785.00380470873,
        "timestamp": "2025-12-05T11:32:55.694075+00:00",
        "meta_object_name": "FM-5",
        "meta_object_id": "2009-034A",
        "meta_epoch": "2025-12-04T13:18:59.465952",
        "meta_mean_motion": 1.00264686,
        "meta_eccentricity": 7.53e-05,
        "meta_inclination": 0.0188,
        "meta_ra_of_asc_node": 288.8393,
        "meta_arg_of_pericenter": 240.0351,
        "meta_mean_anomaly": 18.3463,
        "meta_ephemeris_type": 0,
        "meta_classification_type": "U",
        "meta_norad_cat_id": 35493,
        "meta_element_set_no": 999,
        "meta_rev_at_epoch": 4469,
        "meta_bstar": 0,
        "meta_mean_motion_dot": -1.85e-06,
        "meta_mean_motion_ddot": 0,
        "tle_line1": "1 35493U 09034A   25338.55485493 -.00000185  00000+0  00000+0 0  9997",
        "tle_line2": "2 35493   0.0188 288.8393 0000753 240.0351  18.3463  1.00264686 44695"
      },
      "geometry": {
        "type": "Point",
        "coordinates": [
          161.57631729519633,
          -0.02208894951791762
        ]
      }
    },
    {
      "type": "Feature",
      "properties": {
        "norad_id": 36097,
        "name": "INTELSAT 14 (IS-14)",
        "group": "intelsat",
        "lat": -0.033162399758222216,
        "lon": -157.2663037408224,
        "alt_km": 35779.558407958684,
        "timestamp": "2025-12-05T11:32:55.694088+00:00",
        "meta_object_name": "INTELSAT 14 (IS-14)",
        "meta_object_id": "2009-064A",
        "meta_epoch": "2025-12-04T10:05:14.586144",
        "meta_mean_motion": 1.00271085,
        "meta_eccentricity": 0.0002688,
        "meta_inclination": 0.0131,
        "meta_ra_of_asc_node": 311.6837,
        "meta_arg_of_pericenter": 304.2018,
        "meta_mean_anomaly": 283.926,
        "meta_ephemeris_type": 0,
        "meta_classification_type": "U",
        "meta_norad_cat_id": 36097,
        "meta_element_set_no": 999,
        "meta_rev_at_epoch": 5865,
        "meta_bstar": 0,
        "meta_mean_motion_dot": -2.58e-06,
        "meta_mean_motion_ddot": 0,
        "tle_line1": "1 36097U 09064A   25338.42030771 -.00000258  00000+0  00000+0 0  9993",
        "tle_line2": "2 36097   0.0131 311.6837 0002688 304.2018 283.9260  1.00271085 58651"
      },
      "geometry": {
        "type": "Point",
        "coordinates": [
          -157.2663037408224,
          -0.033162399758222216
        ]
      }
    },
    {
      "type": "Feature",
      "properties": {
        "norad_id": 36106,
        "name": "INTELSAT 15 (IS-15)",
        "group": "intelsat",
        "lat": 0.008594097047744127,
        "lon": -27.063513672621983,
        "alt_km": 35784.437767985684,
        "timestamp": "2025-12-05T11:32:55.694100+00:00",
        "meta_object_name": "INTELSAT 15 (IS-15)",
        "meta_object_id": "2009-067A",
        "meta_epoch": "2025-12-04T12:25:12.120096",
        "meta_mean_motion": 1.00270193,
        "meta_eccentricity": 0.0002481,
        "meta_inclination": 0.0067,
        "meta_ra_of_asc_node": 304.2983,
        "meta_arg_of_pericenter": 310.3847,
        "meta_mean_anomaly": 90.3665,
        "meta_ephemeris_type": 0,
        "meta_classification_type": "U",
        "meta_norad_cat_id": 36106,
        "meta_element_set_no": 999,
        "meta_rev_at_epoch": 3927,
        "meta_bstar": 0,
        "meta_mean_motion_dot": -1.7e-06,
        "meta_mean_motion_ddot": 0,
        "tle_line1": "1 36106U 09067A   25338.51750139 -.00000170  00000+0  00000+0 0  9997",
        "tle_line2": "2 36106   0.0067 304.2983 0002481 310.3847  90.3665  1.00270193 39274"
      },
      "geometry": {
        "type": "Point",
        "coordinates": [
          -27.063513672621983,
          0.008594097047744127
        ]
      }
    },
    {
      "type": "Feature",
      "properties": {
        "norad_id": 36131,
        "name": "DIRECTV 12",
        "group": "intelsat",
        "lat": 0.0002733250623042711,
        "lon": 145.0233675864069,
        "alt_km": 35787.34510438185,
        "timestamp": "2025-12-05T11:32:55.694112+00:00",
        "meta_object_name": "DIRECTV 12",
        "meta_object_id": "2009-075A",
        "meta_epoch": "2025-12-04T13:14:14.921376",
        "meta_mean_motion": 1.00268273,
        "meta_eccentricity": 8.1e-06,
        "meta_inclination": 0.0128,
        "meta_ra_of_asc_node": 87.602,
        "meta_arg_of_pericenter": 275.1839,
        "meta_mean_anomaly": 166.679,
        "meta_ephemeris_type": 0,
        "meta_classification_type": "U",
        "meta_norad_cat_id": 36131,
        "meta_element_set_no": 999,
        "meta_rev_at_epoch": 4460,
        "meta_bstar": 0,
        "meta_mean_motion_dot": -8.8e-07,
        "meta_mean_motion_ddot": 0,
        "tle_line1": "1 36131U 09075A   25338.55156159 -.00000088  00000+0  00000+0 0  9998",
        "tle_line2": "2 36131   0.0128  87.6020 0000081 275.1839 166.6790  1.00268273 44602"
      },
      "geometry": {
        "type": "Point",
        "coordinates": [
          145.0233675864069,
          0.0002733250623042711
        ]
      }
    },
    {
      "type": "Feature",
      "properties": {
        "norad_id": 36397,
        "name": "INTELSAT 16 (IS-16)",
        "group": "intelsat",
        "lat": -0.01565000736590877,
        "lon": 171.52699829849396,
        "alt_km": 35785.036556955776,
        "timestamp": "2025-12-05T11:32:55.694124+00:00",
        "meta_object_name": "INTELSAT 16 (IS-16)",
        "meta_object_id": "2010-006A",
        "meta_epoch": "2025-12-04T11:39:05.593824",
        "meta_mean_motion": 1.00271458,
        "meta_eccentricity": 0.0002334,
        "meta_inclination": 0.0096,
        "meta_ra_of_asc_node": 322.0431,
        "meta_arg_of_pericenter": 292.3542,
        "meta_mean_anomaly": 277.7345,
        "meta_ephemeris_type": 0,
        "meta_classification_type": "U",
        "meta_norad_cat_id": 36397,
        "meta_element_set_no": 999,
        "meta_rev_at_epoch": 5770,
        "meta_bstar": 0,
        "meta_mean_motion_dot": -2.3e-06,
        "meta_mean_motion_ddot": 0,
        "tle_line1": "1 36397U 10006A   25338.48548141 -.00000230  00000+0  00000+0 0  9995",
        "tle_line2": "2 36397   0.0096 322.0431 0002334 292.3542 277.7345  1.00271458 57701"
      },
      "geometry": {
        "type": "Point",
        "coordinates": [
          171.52699829849396,
          -0.01565000736590877
        ]
      }
    },
    {
      "type": "Feature",
      "properties": {
        "norad_id": 37185,
        "name": "XM-5",
        "group": "intelsat",
        "lat": -0.030986449317693322,
        "lon": 132.56162935471664,
        "alt_km": 35780.82676936434,
        "timestamp": "2025-12-05T11:32:55.694136+00:00",
        "meta_object_name": "XM-5",
        "meta_object_id": "2010-053A",
        "meta_epoch": "2025-12-04T11:27:59.156928",
        "meta_mean_motion": 1.0027279,
        "meta_eccentricity": 0.0001333,
        "meta_inclination": 0.0598,
        "meta_ra_of_asc_node": 273.2827,
        "meta_arg_of_pericenter": 247.1051,
        "meta_mean_anomaly": 329.9691,
        "meta_ephemeris_type": 0,
        "meta_classification_type": "U",
        "meta_norad_cat_id": 37185,
        "meta_element_set_no": 999,
        "meta_rev_at_epoch": 5553,
        "meta_bstar": 0,
        "meta_mean_motion_dot": -8e-08,
        "meta_mean_motion_ddot": 0,
        "tle_line1": "1 37185U 10053A   25338.47776802 -.00000008  00000+0  00000+0 0  9992",
        "tle_line2": "2 37185   0.0598 273.2827 0001333 247.1051 329.9691  1.00272790 55534"
      },
      "geometry": {
        "type": "Point",
        "coordinates": [
          132.56162935471664,
          -0.030986449317693322
        ]
      }
    }
  ]
}